{
  "KSFO": {
    "metar_id": 513798372,
    "icaoId": "KSFO",
    "receiptTime": "2024-03-15 23:02:11",
    "obsTime": 1710543360,
    "reportTime": "2024-03-15 23:00:00",
    "temp": 20.6,
    "dewp": 8.9,
    "wdir": 10,
    "wspd": 4,
    "wgst": null,
    "visib": "10+",
    "altim": 1008.9,
    "slp": 1008.6,
    "qcField": 4,
    "wxString": null,
    "presTend": null,
    "maxT": null,
    "minT": null,
    "maxT24": null,
    "minT24": null,
    "precip": null,
    "pcp3hr": null,
    "pcp6hr": null,
    "pcp24hr": null,
    "snow": null,
    "vertVis": null,
    "metarType": "METAR",
    "rawOb": "KSFO 152256Z 01004KT 10SM FEW025 FEW200 21/09 A2979 RMK AO2 SLP086 T02060089",
    "mostRecent": 1,
    "lat": 37.6196,
    "lon": -122.366,
    "elev": 2,
    "prior": 1,
    "name": "San Francisco Intl, CA, US",
    "clouds": [
      {
        "cover": "FEW",
        "base": 2500
      },
      {
        "cover": "FEW",
        "base": 20000
      }
    ],
    "rawTaf": "KSFO 152320Z 1600/1706 01006KT P6SM FEW250 FM160200 30006KT P6SM SKC FM160900 VRB05KT P6SM SKC FM162300 27009KT P6SM SKC FM170500 26004KT P6SM SKC",
    "FAA": {
      "Ground_Delay": {
        "ARPT": "SFO",
        "Reason": "runway construction",
        "Avg": "40 minutes",
        "Max": "2 hours"
      }
    }
  },
  "KPAO": {
    "metar_id": 513811281,
    "icaoId": "KPAO",
    "receiptTime": "2024-03-15 23:48:44",
    "obsTime": 1710546420,
    "reportTime": "2024-03-16 00:00:00",
    "temp": 23,
    "dewp": 1,
    "wdir": 350,
    "wspd": 5,
    "wgst": null,
    "visib": "10+",
    "altim": 1008.5,
    "slp": null,
    "qcField": 0,
    "wxString": null,
    "presTend": null,
    "maxT": null,
    "minT": null,
    "maxT24": null,
    "minT24": null,
    "precip": null,
    "pcp3hr": null,
    "pcp6hr": null,
    "pcp24hr": null,
    "snow": null,
    "vertVis": null,
    "metarType": "METAR",
    "rawOb": "KPAO 152347Z 35005KT 10SM SKC 23/01 A2978",
    "mostRecent": 1,
    "lat": 37.458,
    "lon": -122.112,
    "elev": 2,
    "prior": 5,
    "name": "Palo Alto Arpt, CA, US",
    "clouds": [
      {
        "cover": "SKC",
        "base": null
      }
    ]
  },
  "KHAF": {
    "metar_id": 513795507,
    "icaoId": "KHAF",
    "receiptTime": "2024-03-15 22:58:23",
    "obsTime": 1710543300,
    "reportTime": "2024-03-15 23:00:00",
    "temp": 22,
    "dewp": 1,
    "wdir": 50,
    "wspd": 9,
    "wgst": 16,
    "visib": "10+",
    "altim": 1008.5,
    "slp": null,
    "qcField": 6,
    "wxString": null,
    "presTend": null,
    "maxT": null,
    "minT": null,
    "maxT24": null,
    "minT24": null,
    "precip": null,
    "pcp3hr": null,
    "pcp6hr": null,
    "pcp24hr": null,
    "snow": null,
    "vertVis": null,
    "metarType": "METAR",
    "rawOb": "KHAF 152255Z AUTO 05009G16KT 10SM CLR 22/01 A2978 RMK AO2",
    "mostRecent": 0,
    "lat": 37.5136,
    "lon": -122.5,
    "elev": 11,
    "prior": 5,
    "name": "Half Moon Bay Arpt, CA, US",
    "clouds": [
      {
        "cover": "CLR",
        "base": null
      }
    ]
  },
  "KJFK": {
    "metar_id": 513811820,
    "icaoId": "KJFK",
    "receiptTime": "2024-03-15 23:54:03",
    "obsTime": 1710546660,
    "reportTime": "2024-03-16 00:00:00",
    "temp": 15,
    "dewp": 5.6,
    "wdir": 350,
    "wspd": 12,
    "wgst": null,
    "visib": "10+",
    "altim": 1007.5,
    "slp": 1007.4,
    "qcField": 12,
    "wxString": null,
    "presTend": 3,
    "maxT": null,
    "minT": null,
    "maxT24": null,
    "minT24": null,
    "precip": null,
    "pcp3hr": null,
    "pcp6hr": null,
    "pcp24hr": null,
    "snow": null,
    "vertVis": null,
    "metarType": "METAR",
    "rawOb": "KJFK 152351Z 35012KT 10SM FEW055 FEW075 BKN250 15/06 A2975 RMK AO2 PK WND 34027/2329 SLP074 6//// T01500056 53030 $",
    "mostRecent": 1,
    "lat": 40.6392,
    "lon": -73.7639,
    "elev": 3,
    "prior": 0,
    "name": "New York/JF Kennedy Intl, NY, US",
    "clouds": [
      {
        "cover": "FEW",
        "base": 5500
      },
      {
        "cover": "FEW",
        "base": 7500
      },
      {
        "cover": "BKN",
        "base": 25000
      }
    ],
    "rawTaf": "KJFK 152321Z 1600/1706 33011G17KT P6SM SCT050 SCT150 FM160200 35008KT P6SM SCT040 SCT150 FM160800 32006KT P6SM FEW040 FM161300 30009KT P6SM SKC FM161800 23008KT P6SM FEW050 FM162100 19015KT P6SM FEW040 FEW250"
  },
  "KLAS": {
    "metar_id": 513798204,
    "icaoId": "KLAS",
    "receiptTime": "2024-03-15 23:02:08",
    "obsTime": 1710543360,
    "reportTime": "2024-03-15 23:00:00",
    "temp": 8.9,
    "dewp": 6.1,
    "wdir": 0,
    "wspd": 0,
    "wgst": null,
    "visib": 9,
    "altim": 1011.6,
    "slp": 1011.3,
    "qcField": 4,
    "wxString": "-RA",
    "presTend": null,
    "maxT": null,
    "minT": null,
    "maxT24": null,
    "minT24": null,
    "precip": 0.05,
    "pcp3hr": null,
    "pcp6hr": null,
    "pcp24hr": null,
    "snow": null,
    "vertVis": null,
    "metarType": "METAR",
    "rawOb": "KLAS 152256Z 00000KT 9SM -RA BKN038 BKN045 OVC055 09/06 A2987 RMK AO2 LTG DSNT E SLP113 P0005 T00890061",
    "mostRecent": 1,
    "lat": 36.0719,
    "lon": -115.163,
    "elev": 662,
    "prior": 1,
    "name": "Las Vegas/Reid Intl, NV, US",
    "clouds": [
      {
        "cover": "BKN",
        "base": 3800
      },
      {
        "cover": "BKN",
        "base": 4500
      },
      {
        "cover": "OVC",
        "base": 5500
      }
    ],
    "rawTaf": "KLAS 152320Z 1600/1706 01007KT P6SM BKN050 OVC070 FM160500 VRB06KT P6SM VCSH BKN030 OVC040 PROB30 1610/1616 5SM -SHRA BR OVC030 FM161600 05006KT P6SM VCSH BKN030 OVC040 FM162000 06006KT P6SM BKN050 BKN070 FM170300 23007KT P6SM SCT060 BKN080",
    "FAA": {
      "Ground_Delay": {
        "ARPT": "LAS",
        "Reason": "low ceilings",
        "Avg": "1 hour and 58 minutes",
        "Max": "14 hours and 29 minutes"
      },
      "Airport_Closure": {
        "ARPT": "LAS",
        "Reason": "!LAS 03/098 LAS AD AP CLSD TO NON SKED TRANSIENT GA ACFT EXC PPR 702-261-7775 2403132300-2405152300",
        "Start": "Mar 13 at 23:00 UTC.",
        "Reopen": "May 15 at 23:00 UTC."
      }
    }
  },
  "KHOU": {
    "metar_id": 513809560,
    "icaoId": "KHOU",
    "receiptTime": "2024-03-15 23:40:04",
    "obsTime": 1710545760,
    "reportTime": "2024-03-15 23:36:00",
    "temp": 20.6,
    "dewp": 17.2,
    "wdir": 110,
    "wspd": 10,
    "wgst": null,
    "visib": 8,
    "altim": 1013,
    "slp": null,
    "qcField": 4,
    "wxString": "-TSRA",
    "presTend": null,
    "maxT": null,
    "minT": null,
    "maxT24": null,
    "minT24": null,
    "precip": 0.005,
    "pcp3hr": null,
    "pcp6hr": null,
    "pcp24hr": null,
    "snow": null,
    "vertVis": null,
    "metarType": "SPECI",
    "rawOb": "KHOU 152336Z 11010KT 8SM -TSRA FEW007 SCT018CB BKN050 OVC130 21/17 A2991 RMK AO2 LTG DSNT ALQDS FRQ LTGICCG NW-N-NE TS NW-N-NE MOV NE P0000 T02060172",
    "mostRecent": 1,
    "lat": 29.6458,
    "lon": -95.2821,
    "elev": 13,
    "prior": 5,
    "name": "Houston/Hobby Arpt, TX, US",
    "clouds": [
      {
        "cover": "FEW",
        "base": 700
      },
      {
        "cover": "SCT",
        "base": 1800
      },
      {
        "cover": "BKN",
        "base": 5000
      },
      {
        "cover": "OVC",
        "base": 13000
      }
    ],
    "rawTaf": "KHOU 152339Z 1600/1624 06010KT P6SM VCSH FEW005 BKN016 BKN026 TEMPO 1600/1601 6SM -TSRA BR BKN015CB FM160200 06006KT 6SM BR SCT008 BKN015 FM160900 08006KT 4SM BR BKN007 FM161800 09008KT P6SM VCSH SCT007 BKN015"
  }
}
